XRISM                   
1 57800U 23137A   26093.53422592  .00009122  00000+0  51504-3 0  9999
2 57800  31.0011 122.9307 0007841 288.5773  71.4014 15.11805272141557
ACS3                    
1 59588U 24077B   26093.54494453  .00026835  00000+0  20948-1 0  9990
2 59588  97.1951  29.0711 0073374  20.4828 339.9252 13.90823198 97651
HTV-X1                  
1 66174U 25241A   26093.62636246  .00005755  00000+0  19199-3 0  9996
2 66174  51.6359 312.8669 0007284 268.9502  91.0645 15.32516519 24765
SZ-21 MODULE            
1 66515U 25246C   26093.57082555  .00056445  00000+0  44364-3 0  9996
2 66515  41.4748  49.9717 0002969 226.3876 133.6720 15.70603524 21985
